{
    "links": {
        "self": "http://www.neowsapp.com/rest/v1/neo/3790064?api_key=iIulBulltgU6a56xZRHN4H3l9WmuAYTsLGpBGhQ2"
    },
    "id": "3790064",
    "neo_reference_id": "3790064",
    "name": "(2017 WS28)",
    "designation": "2017 WS28",
    "nasa_jpl_url": "http://ssd.jpl.nasa.gov/sbdb.cgi?sstr=3790064",
    "absolute_magnitude_h": 25.3,
    "estimated_diameter": {
        "kilometers": {
            "estimated_diameter_min": 0.0231502122,
            "estimated_diameter_max": 0.0517654482
        },
        "meters": {
            "estimated_diameter_min": 23.150212221,
            "estimated_diameter_max": 51.7654482198
        },
        "miles": {
            "estimated_diameter_min": 0.0143848705,
            "estimated_diameter_max": 0.0321655483
        },
        "feet": {
            "estimated_diameter_min": 75.9521422633,
            "estimated_diameter_max": 169.8341531374
        }
    },
    "is_potentially_hazardous_asteroid": false,
    "close_approach_data": [
        {
            "close_approach_date": "2017-11-29",
            "close_approach_date_full": "2017-Nov-29 19:16",
            "epoch_date_close_approach": 1511982960000,
            "relative_velocity": {
                "kilometers_per_second": "12.8493085502",
                "kilometers_per_hour": "46257.5107807805",
                "miles_per_hour": "28742.61829598"
            },
            "miss_distance": {
                "astronomical": "0.0977502806",
                "lunar": "38.0248591534",
                "kilometers": "14623233.769662322",
                "miles": "9086456.1198991636"
            },
            "orbiting_body": "Earth"
        },
        {
            "close_approach_date": "2018-04-09",
            "close_approach_date_full": "2018-Apr-09 13:39",
            "epoch_date_close_approach": 1523281140000,
            "relative_velocity": {
                "kilometers_per_second": "12.1235724821",
                "kilometers_per_hour": "43644.8609356324",
                "miles_per_hour": "27119.2192852545"
            },
            "miss_distance": {
                "astronomical": "0.4684691693",
                "lunar": "182.2345068577",
                "kilometers": "70081989.887949391",
                "miles": "43546929.2184319558"
            },
            "orbiting_body": "Earth"
        }
    ],
    "orbital_data": {
        "orbit_id": "1",
        "orbit_determination_date": "2017-12-04 20:43:19",
        "first_observation_date": "2017-11-27",
        "last_observation_date": "2017-12-03",
        "data_arc_in_days": 6,
        "observations_used": 21,
        "orbit_uncertainty": "8",
        "minimum_orbit_intersection": ".0926409",
        "jupiter_tisserand_invariant": "5.042",
        "epoch_osculation": "2458085.5",
        "eccentricity": ".1633450341501631",
        "semi_major_axis": "1.250640044923921",
        "inclination": "24.29152871130552",
        "ascending_node_longitude": "245.046872518919",
        "orbital_period": "510.8541462361954",
        "perihelion_distance": "1.046354204076262",
        "perihelion_argument": "219.6842458314563",
        "aphelion_distance": "1.454925885771581",
        "perihelion_time": "2458127.083652708821",
        "mean_anomaly": "330.6959117676338",
        "mean_motion": ".704702120267323",
        "equinox": "J2000",
        "orbit_class": {
            "orbit_class_type": "AMO",
            "orbit_class_description": "Near-Earth asteroid orbits similar to that of 1221 Amor",
            "orbit_class_range": "1.017 AU < q (perihelion) < 1.3 AU"
        }
    },
    "is_sentry_object": false
}